EOSSAT-1                
1 55053U 23001AW  26068.73619225  .00007695  00000+0  24844-3 0  9992
2 55053  97.3357 130.2294 0011263 110.3168 249.9285 15.32339828176689
STARLINK-31716          
1 59377U 24062D   26068.67171446 -.00000207  00000+0  51345-5 0  9995
2 59377  53.1595 207.0980 0000929  87.9131 272.1976 15.30192908110303
